HIMAWARI-8              
1 40267U 14060A   24070.33105047 -.00000287  00000+0  00000+0 0  9992
2 40267   0.0267 198.6462 0001054 133.0384  96.6246  1.00272893 34444
